#dP2019 11 10  0  0  0.00000000      96 __u+U ITR00 FIT  IAC
## 2079      0.00000000   900.00000000 58797 0.0000000000000
+  114   C01C02C03C04C05C06C07C08C09C10C11C13C14C16C19C20C21
+        C22C23C24C25C26C27C28C29C30C32C33C34C35C36C37E01E02
+        E03E04E05E07E08E09E12E13E14E15E18E19E21E24E25E26E27
+        E30E31E33E36G01G02G03G04G05G06G07G08G09G10G11G12G13
+        G14G15G16G17G18G19G20G21G22G23G24G25G26G27G28G29G30
+        G31G32J01J02J03R01R02R03R05R06R07R08R09R10R11R12R13
+        R14R15R16R17R18R19R20R21R22R23R24R26  0  0  0  0  0
++        13 13 13 13 13  8  8  8  8  8  7  8  8  8  7  8  8
++         8  8  8  8  7  8  8  7  7  8  8  7  8  0  9  4  4
++         4  5  4  4  4  4  4  4  4  4  4  4  4  4  5  4  4
++         4  4  4  4  3  3  3  4  3  3  3  3  3  3  3  3  3
++         3  3  3  3  4  3  3  3  3  3  3  3  3  3  3  3  3
++         3  3  9  8  9  6  5  5  5 11  5  6  5 10  5  5  6
++         5  5  6  5  5  6  6  5  5  5  6  8  0  0  0  0  0
%c M  cc GPS ccc cccc cccc cccc cccc ccccc ccccc ccccc ccccc
%c cc cc ccc ccc cccc cccc cccc cccc ccccc ccccc ccccc ccccc
%f  0.0000000  0.000000000  0.00000000000  0.000000000000000
%f  0.0000000  0.000000000  0.00000000000  0.000000000000000
%i    0    0    0    0      0      0      0      0         0
%i    0    0    0    0      0      0      0      0         0
/* INFORMATION & ANALYSIS CENTER (IAC)            RAPID DATA
/* S/V CLOCKS ARE ALIGNED TO GNSS TIME                      
/* G:C1WC2W R:C1PC2P E:C1XC5X C:C2IC6I J:C1CC2S             
/* PCV:IGS14_2076 OL/AL:FES2004  NONE     YN ORB:CoN CLK:CoN
*  2019 11 10 23  0  0.00000000
PC01 -32287.261021  27087.267292    229.445566    124.015557
PC02   4435.072669  41951.984331    599.139317    747.270412
PC03 -14826.875301  39467.720851    791.668779    -90.716709
PC04 -39571.868645  14483.081730    273.347498   -415.894444
PC05  21879.714561  36054.191220    541.125395    -67.801767
PC06 -25284.747796  28928.404651 -17470.811558    324.436964
PC07 -11855.215435  35845.787329 -18082.173523   -254.722123
PC08 -10682.090114  18947.931544  36203.134330    -31.121008
PC09  -9283.439867  28538.193228 -29543.009892    106.391184
PC10   -724.241832  41636.499328  -4862.959798   -354.176106
PC11   -273.187201  15537.603555  23234.888723      5.134498
PC13   5106.988942  26751.337049  32335.565036     99.534892
PC14  -2473.335529  26312.279560  -8856.930546    112.623040
PC16 -21910.295740  29618.447149 -20634.045843   -914.948388
PC19  -4451.811808 -22206.988193  16325.811404    241.666435
PC20   8673.094587 -26534.004807    537.506557   -275.914783
PC21 -17070.158688  15141.381249  16061.391800    191.435581
PC22 -15194.846626  -4933.611632  22875.578359   -345.820344
PC23  21746.623346  13132.390842  11559.828222   -883.968361
PC24  -1752.141240  19637.714203 -19755.874102   -879.680661
PC25  15025.741484  22858.051913  -5568.141201   -409.809237
PC26 -16029.225262   5511.907477 -22162.748870    455.733531
PC27  25802.243139  -8671.980868  -6128.202854    222.796960
PC28  25232.773762   3691.846864  11355.555518    213.946151
PC29 -10445.784563 -13463.833986 -22100.039399    144.353247
PC30  10913.211372 -16311.927561 -19830.320692    222.316100
PC32  16966.549373 -15284.003523 -16038.977957   -872.219558
PC33   4527.709021  22221.132814 -16254.933626   -555.466454
PC34 -10632.655714  16352.224380  19963.217971   -223.772808
PC35 -25311.852330  -2924.614467 -11405.902211   -539.471421
PC36      0.000000      0.000000      0.000000 999999.999999
PC37  16522.890815  -4572.645955  22046.533536   -732.571211
PE01  15357.518760  -5699.749921  24662.154386   -729.185569
PE02 -15320.407438   5791.021094 -24648.806594     91.022640
PE03 -23741.095960  13693.873540  11155.636443   -231.629001
PE04  15716.337442 -24066.339250   7071.746689   -403.186174
PE05 -17941.590740  -4813.210058  23039.845219   -432.375781
PE07   1693.977996  20391.257189 -21386.516228   -297.431191
PE08 -15437.412612  24180.888175  -7267.293444   6264.959594
PE09  -1782.605017 -20274.974081  21495.875840   6256.928928
PE12  10629.633546 -13834.715298 -23906.748129   6106.163138
PE13  12023.281963  16859.953564  21159.746815    395.240861
PE14 -23454.159789  12570.639375   1489.227449   -789.676648
PE15 -10226.318530  13934.207690  24036.979023    888.263821
PE18  15702.564645 -21282.483545 -15600.359458   -884.547905
PE19  23730.610595 -12032.283759 -12972.962217     -2.970237
PE21  17334.206031  15821.129833  18043.251661   -565.198734
PE24  -9004.456539 -28174.394590   -857.421986   5773.829541
PE25 -17308.936978 -15921.291621 -17962.820968   -495.383739
PE26  27273.460482  10042.802541   5656.414011   3891.720039
PE27   9123.021133  28150.555245    792.206093    348.379722
PE30  -4595.986641  23894.548916 -16862.307828   4395.075324
PE31   4434.611189 -23910.714431  16892.395642   -470.419017
PE33  26534.467945  -2817.833442 -12809.590250   -471.762447
PE36 -27268.853500  -9899.098122  -5857.473253    638.434737
PG01 -22290.249204 -14701.085942  -1536.830549   -193.028220
PG02   6023.660599  18171.689416  19083.946752   -344.195734
PG03 -13209.403280 -12569.475267  19283.509489    -34.782022
PG04 -24577.628265   7690.310173   6371.156782     -7.734261
PG05   3653.055101  25816.614779  -4603.684815     -3.307198
PG06  -8603.323943  12167.577067  22032.094382   -119.620987
PG07 -23022.989725  -3384.788193 -12949.737767   -146.080602
PG08 -10213.902696 -11297.330999 -21740.403422    -12.928822
PG09 -23863.473029   5281.597339  10351.405399    -80.094160
PG10  11618.281505 -17153.101189 -16427.225076   -129.586267
PG11 -22820.056906  -9511.840789  -9793.346374   -451.873856
PG12   9689.214408  18154.025842  16667.453424    184.844875
PG13    249.727933  15816.501017 -21446.010021    -33.597481
PG14  12771.263496 -17669.428263  15368.242250    -51.213076
PG15  12573.656922  10589.039013 -21198.714352   -273.563540
PG16    617.214660 -26154.215208  -3071.069936    -91.906300
PG17 -20772.332553  15179.694978   6846.230280    160.646312
PG18 -17750.056861 -17374.495669 -10041.893473     99.287043
PG19 -16655.942320  16272.298745  12500.436925   -241.516847
PG20  14854.682035  -7065.338065 -20927.079137    527.430612
PG21  21230.955977  -1112.826048 -15003.255796    -88.119632
PG22 -11886.335492 -19256.572873  14200.424141   -770.765193
PG23 -19727.211843  -3528.814617  17962.253139   -156.288590
PG24  21973.062964  14781.354123  -3965.668418     -4.695605
PG25  14869.600879   2547.374816  21659.129377    -16.983309
PG26   4952.532944 -24902.201287   7424.957178     81.419291
PG27   2444.211042 -17004.031489 -20279.870477   -115.882229
PG28 -12153.549895  17585.158863 -15233.134289    755.621257
PG29  23698.538588  -2648.083025  11692.712216     47.631675
PG30 -16408.358816   6605.835368 -19837.042891    -81.063210
PG31   7123.666979 -13500.964572  21700.848622     -2.341751
PG32  19883.560726 -16367.625614   6269.083341    120.863320
PJ01 -30735.908085  26511.681292  16372.480911   -333.021279
PJ02 -18227.287815  23523.805908 -25492.352539     -7.484037
PJ03 -30481.229444  27918.252643  13526.301579     -6.099292
PR01  12191.594778 -22412.139519    295.904509     52.481596
PR02   -231.360343 -17313.728086  18737.580568    397.131590
PR03 -11402.977283  -1962.392911  22769.208996      4.617284
PR05 -11392.583412  22641.989445  -2972.921641     39.172516
PR06   1328.765023  16838.332143 -19143.143095    165.416829
PR07  11601.201030   1490.494863 -22636.772187    -29.252287
PR08  15865.854421 -14384.130051 -13802.910509     14.512856
PR09  13028.943046  21883.179852    496.776117    100.408820
PR10   8734.254486  -6633.990570  23023.867725    -51.079856
PR11  10588.869772  -3819.489216  22907.710826     20.396778
PR12   -451.446849 -17865.240689  18224.299552     78.095992
PR13 -12012.654339 -22374.940636   2403.429463    -30.760994
PR14 -15934.662799 -13758.976824 -14395.281834     44.934055
PR15 -10904.922044   2782.678659 -22864.524998    104.690460
PR16    954.780798  18213.655436 -17906.831092      0.667679
PR17 -23267.383252  -4355.200501  -9432.843764    275.059480
PR18 -24148.876901   3326.237168   7608.090223     14.060438
PR19 -12419.161041   8815.788053  20460.808067    -63.305310
PR20   8709.747898   9979.383216  21800.719436   -395.819879
PR21  23654.730514   4020.641772   8711.689534    -84.439896
PR22  22769.899093  -4486.233365 -10449.147439   -184.272962
PR23   6008.259036 -10119.476922 -22637.162909    265.995894
PR24 -11153.490072  -9481.093642 -20913.484395   -186.621125
PR26   5056.387167  10277.901020  22808.204924      8.159043
EOF
